#aV2006  2 15  0  0   .00000000      96 DD+AD WGS84 FIT  NGA
## 1362 259200.00000000   900.00000000 53781  .0000000000000
+   29     1  2  3  4  5  6  7  8  9 10 11 13 14 15 16 17 18
+         19 20 21 22 23 24 25 26 27 28 29 30  0  0  0  0  0
+          0  0  0  0  0  0  0  0  0  0  0  0  0  0  0  0  0
+          0  0  0  0  0  0  0  0  0  0  0  0  0  0  0  0  0
+          0  0  0  0  0  0  0  0  0  0  0  0  0  0  0  0  0
++         0  0  0  0  0  0  0  0  0  0  0  0  0  0  0  0  0
++         0  0  0  0  0  0  0  0  0  0  0  0  0  0  0  0  0
++         0  0  0  0  0  0  0  0  0  0  0  0  0  0  0  0  0
++         0  0  0  0  0  0  0  0  0  0  0  0  0  0  0  0  0
++         0  0  0  0  0  0  0  0  0  0  0  0  0  0  0  0  0
%c cc cc ccc ccc cccc cccc cccc cccc ccccc ccccc ccccc ccccc
%c cc cc ccc ccc cccc cccc cccc cccc ccccc ccccc ccccc ccccc
%f  0.0000000  0.000000000  0.00000000000  0.000000000000000
%f  0.0000000  0.000000000  0.00000000000  0.000000000000000
%i    0    0    0    0      0      0      0      0         0
%i    0    0    0    0      0      0      0      0         0
/*      NGA, ST. LOUIS,MO.                                  
/*   EPHEMERIS COMPUTED FROM  3 DAYS OF DATA                
/* CCCCCCCCCCCCCCCCCCCCCCCCCCCCCCCCCCCCCCCCCCCCCCCCCCCCCCCCC
/* CCCCCCCCCCCCCCCCCCCCCCCCCCCCCCCCCCCCCCCCCCCCCCCCCCCCCCCCC
*  2006  2 15 10 30   .00000000                                                 
P  1  14088.005752  -5038.868044 -21741.405395     36.811811                    
V  1   2095.083770  27941.241341  -5111.146899       .019790                    
P  2 -23219.792811  11200.589748  -6266.828995    -18.435416                    
V  2   4405.365914  -6986.497553 -30296.586596       .014865                    
P  3  13126.775452 -11211.231943  19953.445256     74.936412                    
V  3   6281.621781  25169.926447  10229.477213       .029000                    
P  4 -22171.177984   2542.913489 -14702.696996    149.930947                    
V  4  14050.036695 -12198.870272 -22999.909369       .115904                    
P  5   -123.660748  16397.760017 -21110.465377   -555.240141                    
V  5 -25082.122667  -8330.147815  -6215.883131       .902359                    
P  6   7097.212873  25074.775225   5090.102996    326.386768                    
V  6  -2763.593719   6687.736046 -30297.318394       .346928                    
P  7  -9685.495596  17839.305333 -16758.134799    495.880030                    
V  7  -5806.763387 -21394.664558 -19155.844013       .081018                    
P  8 -17042.038307  -4921.078712  19746.413984    -56.696402                    
V  8  20586.425700 -14637.055909  13625.315375      -.011743                    
P  9 -11400.559688  20355.945801 -12945.756714      7.916676                    
V  9 -13863.193881   7751.581600  25742.019804       .016373                    
P 10 -18151.320554   5356.832599  18677.129607     78.736799                    
V 10 -20959.724121 -11214.124213 -16768.720742       .006214                    
P 11   9081.634904 -21830.203778 -11922.297338    307.030318                    
V 11  13872.451769  -7638.234185  24927.348324       .027847                    
P 13  -6497.646118 -24803.416080   6973.244726     41.494587                    
V 13   1040.417596  -9021.411073 -30729.432372       .024571                    
P 14  14082.271401  10853.048256 -19675.797599    -19.400691                    
V 14   1322.553244  25042.394044  14663.753516       .006086                    
P 15  16499.536961   6250.052286  19794.211375    566.199352                    
V 15 -21159.582887  14101.711728  12703.031533       .059413                    
P 16  22616.861993   -360.745983  14076.729970     26.587767                    
V 16  15217.488898   9256.423115 -24266.577895       .018268                    
P 17 -14348.045407 -12442.991729 -18623.442862     51.151200                    
V 17   -939.184492 -23598.764149  16429.323830       .078675                    
P 18  16106.528115  17615.762282  12047.778262   -220.855021                    
V 18 -14397.388659  -4873.978943  26296.482099      -.021183                    
P 19   7624.648146 -22403.858262  12122.199899    -21.474821                    
V 19   3023.643837  15146.167143  26340.085116       .009459                    
P 20    188.988121 -16153.089369 -21171.772800    -32.692845                    
V 20  24682.109295  10173.690030  -7541.715422       .008770                    
P 21   8440.012229  13108.388007  21539.519170      5.660303                    
V 21 -22951.411766  14825.458188   -535.905786       .033601                    
P 22  23632.266346  12117.191395   -114.243687     68.801106                    
V 22  -1057.997655   2773.381452  31669.756171       .028722                    
P 23    785.277094 -26015.010654  -4956.602754    150.389338                    
V 23   3279.906625   5903.562149 -31163.993382      -.014404                    
P 24 -12486.235670  -9575.671010 -21192.725457     85.680481                    
V 24  22817.194430 -15233.815946  -6246.941153       .030996                    
P 25  22097.318144  -7498.589533 -12384.835603   -108.399626                    
V 25 -10670.253013  12644.013573 -25746.999089       .378072                    
P 26  -8915.406314  18868.809906  15693.826315    -38.179082                    
V 26  -3398.816246 -20594.462563  22884.895179      -.086608                    
P 27  -8801.092976 -12892.295756  22073.283663     35.914629                    
V 27  20853.860010 -16591.793010  -1770.406763       .016598                    
P 28 -22859.018198 -13515.489158   3488.731083     33.256009                    
V 28   4725.286577   -501.038886  31118.608227      -.007988                    
P 29 -10869.757442  15383.030906  18866.731965    534.051302                    
V 29  -3722.496236 -23201.514277  17243.821121       .119825                    
P 30   9965.210444  17715.599161 -17429.659839     24.994963                    
V 30 -20684.561842  -6507.431727 -18622.142745       .022761                    
EOF
